OBJECT_NAME,OBJECT_ID,EPOCH,MEAN_MOTION,ECCENTRICITY,INCLINATION,RA_OF_ASC_NODE,ARG_OF_PERICENTER,MEAN_ANOMALY,EPHEMERIS_TYPE,CLASSIFICATION_TYPE,NORAD_CAT_ID,ELEMENT_SET_NO,REV_AT_EPOCH,BSTAR,MEAN_MOTION_DOT,MEAN_MOTION_DDOT
GLOBALSTAR M069,2007-020C,2026-06-10T13:32:33.734112,12.23470949,.00024766,52.0039,270.8721,134.4344,245.3109,0,U,31573,999,87799,-.67296475E-4,-.1E-5,0
GLOBALSTAR M072,2007-020D,2026-06-10T14:51:51.947136,11.91658482,.00013984,51.9915,117.7301,313.6534,222.4028,0,U,31574,999,87419,.65301572E-4,-.79E-6,0
GLOBALSTAR M066,2007-048C,2026-06-10T12:31:13.855296,12.30388314,.00053736,51.9595,77.0463,29.8088,145.9900,0,U,32265,999,85940,-.39363411E-3,-.141E-5,0
GLOBALSTAR M079,2010-054A,2026-06-10T05:42:04.072896,12.62266030,.000055,52.0020,129.8248,6.0342,11.0944,0,U,37188,999,72167,.86859E-4,-.88E-6,0
GLOBALSTAR M074,2010-054B,2026-06-10T04:27:56.714112,12.62268415,.00003939,51.9997,129.2475,46.2422,337.0384,0,U,37189,999,72227,.31878902E-4,-.98E-6,0
GLOBALSTAR M076,2010-054C,2026-06-10T15:22:49.588608,12.62261798,.00005872,52.0017,128.0656,33.8312,137.2748,0,U,37190,999,72204,-.62745125E-4,-.115E-5,0
GLOBALSTAR M077,2010-054D,2026-06-10T06:40:17.743296,11.67547610,.00028463,51.9928,196.8334,160.1079,279.9888,0,U,37191,999,72033,.22638312E-3,-.66E-6,0
GLOBALSTAR M075,2010-054E,2026-06-10T07:44:13.949952,12.62267370,.0000023,51.9920,171.0949,100.2857,2.7061,0,U,37192,999,72107,.9813249E-4,-.86E-6,0
GLOBALSTAR M073,2010-054F,2026-06-10T11:54:17.154432,12.62262116,.00007947,52.0062,84.6598,34.6497,136.4413,0,U,37193,999,72308,-.51477068E-4,-.113E-5,0
GLOBALSTAR M083,2011-033A,2026-06-09T22:07:06.894048,12.62262934,.00008503,51.9872,34.6471,56.6762,324.2987,0,U,37739,999,69203,.1128261E-4,-.102E-5,0
GLOBALSTAR M088,2011-033B,2026-06-10T12:59:38.549760,12.62268626,.00008152,52.0229,299.1731,116.3434,320.7716,0,U,37740,999,68765,.30797891E-4,-.98E-6,0
GLOBALSTAR M091,2011-033C,2026-06-10T12:59:46.949568,12.62263760,.0000454,52.0002,262.1479,140.7413,237.8761,0,U,37741,999,68844,.15887306E-4,-.101E-5,0
GLOBALSTAR M085,2011-033D,2026-06-10T10:46:04.416672,12.62263971,.00001542,52.0109,213.7168,199.1564,177.4108,0,U,37742,999,68894,.95593831E-4,-.87E-6,0
GLOBALSTAR M081,2011-033E,2026-06-10T11:53:30.640128,12.62264828,.00001989,51.9938,216.0181,128.0952,340.9797,0,U,37743,999,68909,.85446575E-4,-.88E-6,0
GLOBALSTAR M089,2011-033F,2026-06-10T06:39:44.983008,12.62267115,.0000354,51.9904,170.8409,99.5406,279.7426,0,U,37744,999,68991,.16587E-3,-.74E-6,0
GLOBALSTAR M084,2011-080A,2026-06-10T09:43:07.038912,12.62267488,.00010491,52.0027,37.9297,75.3805,102.7780,0,U,38040,999,66790,-.21349082E-4,-.108E-5,0
GLOBALSTAR M080,2011-080B,2026-06-10T09:01:25.281120,12.62269278,.00003162,52.0077,39.7335,68.7805,107.7413,0,U,38041,999,66802,-.5608633E-5,-.105E-5,0
GLOBALSTAR M082,2011-080C,2026-06-09T20:10:56.000352,12.62269936,.000054,52.0097,356.8622,89.0614,105.0212,0,U,38042,999,66866,.80473E-4,-.89E-6,0
GLOBALSTAR M092,2011-080D,2026-06-10T12:33:45.114048,12.62266900,.00005824,52.0087,85.1810,53.8824,122.1248,0,U,38043,999,66720,-.16460977E-4,-.107E-5,0
GLOBALSTAR M090,2011-080E,2026-06-10T06:14:36.724992,12.62269008,.0000804,52.0144,349.5401,82.2816,96.6628,0,U,38044,999,66883,.60208E-4,-.93E-6,0
GLOBALSTAR M086,2011-080F,2026-06-10T06:48:16.966944,12.62286631,.0001643,51.9914,349.4101,55.6109,130.1551,0,U,38045,999,66878,.11429E-3,-.83E-6,0
GLOBALSTAR M097,2013-005A,2026-06-10T14:10:19.497216,12.62247183,.00004191,52.0051,263.4172,124.4278,235.6628,0,U,39072,999,61607,.31948897E-4,-.98E-6,0
GLOBALSTAR M093,2013-005B,2026-06-10T13:31:53.578848,12.62265772,.00002886,52.0107,256.8429,106.0020,254.0879,0,U,39073,999,61602,.43799285E-4,-.96E-6,0
GLOBALSTAR M094,2013-005C,2026-06-10T07:49:41.751552,12.62268573,.00002289,51.9929,171.6891,342.0361,18.0497,0,U,39074,999,61760,.11675057E-3,-.83E-6,0
GLOBALSTAR M096,2013-005D,2026-06-10T10:03:06.047136,12.62265451,.0000149,52.0057,220.2043,171.2750,188.8119,0,U,39075,999,61653,.93230895E-4,-.87E-6,0
GLOBALSTAR M078,2013-005E,2026-06-10T13:12:14.787360,12.62258677,.00005584,51.9889,303.8213,202.8386,157.2455,0,U,39076,999,61517,-.41869575E-3,-.179E-5,0
GLOBALSTAR M095,2013-005F,2026-06-10T15:44:49.238016,12.62263356,.00003544,52.0096,301.0938,124.0975,235.9925,0,U,39077,999,61504,.4262894E-5,-.103E-5,0
GLOBALSTAR M087,2022-064A,2026-06-10T00:51:43.878528,12.62268960,.00006124,51.9998,84.2235,22.9964,337.0930,0,U,52888,999,19023,.16799683E-4,-.101E-5,0
